{
    "links": {
        "self": "http://www.neowsapp.com/rest/v1/neo/3702707?api_key=iIulBulltgU6a56xZRHN4H3l9WmuAYTsLGpBGhQ2"
    },
    "id": "3702707",
    "neo_reference_id": "3702707",
    "name": "(2014 YQ)",
    "designation": "2014 YQ",
    "nasa_jpl_url": "http://ssd.jpl.nasa.gov/sbdb.cgi?sstr=3702707",
    "absolute_magnitude_h": 20.6,
    "estimated_diameter": {
        "kilometers": {
            "estimated_diameter_min": 0.2016299194,
            "estimated_diameter_max": 0.4508582062
        },
        "meters": {
            "estimated_diameter_min": 201.6299194428,
            "estimated_diameter_max": 450.8582061718
        },
        "miles": {
            "estimated_diameter_min": 0.1252869847,
            "estimated_diameter_max": 0.2801502144
        },
        "feet": {
            "estimated_diameter_min": 661.5155049046,
            "estimated_diameter_max": 1479.1936371367
        }
    },
    "is_potentially_hazardous_asteroid": false,
    "close_approach_data": [
        {
            "close_approach_date": "1998-12-29",
            "close_approach_date_full": "1998-Dec-29 15:33",
            "epoch_date_close_approach": 914945580000,
            "relative_velocity": {
                "kilometers_per_second": "19.3233089893",
                "kilometers_per_hour": "69563.9123615606",
                "miles_per_hour": "43224.3098782153"
            },
            "miss_distance": {
                "astronomical": "0.3483550832",
                "lunar": "135.5101273648",
                "kilometers": "52113178.450392784",
                "miles": "32381627.5330530592"
            },
            "orbiting_body": "Earth"
        },
        {
            "close_approach_date": "2014-12-30",
            "close_approach_date_full": "2014-Dec-30 09:37",
            "epoch_date_close_approach": 1419932220000,
            "relative_velocity": {
                "kilometers_per_second": "20.2034810234",
                "kilometers_per_hour": "72732.5316840827",
                "miles_per_hour": "45193.1667011457"
            },
            "miss_distance": {
                "astronomical": "0.4590203915",
                "lunar": "178.5589322935",
                "kilometers": "68668472.854966105",
                "miles": "42668610.462318049"
            },
            "orbiting_body": "Earth"
        },
        {
            "close_approach_date": "2021-12-25",
            "close_approach_date_full": "2021-Dec-25 19:06",
            "epoch_date_close_approach": 1640459160000,
            "relative_velocity": {
                "kilometers_per_second": "20.1260817762",
                "kilometers_per_hour": "72453.8943942649",
                "miles_per_hour": "45020.0323251476"
            },
            "miss_distance": {
                "astronomical": "0.4571344464",
                "lunar": "177.8252996496",
                "kilometers": "68386339.485069168",
                "miles": "42493300.9154757984"
            },
            "orbiting_body": "Earth"
        },
        {
            "close_approach_date": "2037-12-26",
            "close_approach_date_full": "2037-Dec-26 12:14",
            "epoch_date_close_approach": 2145442440000,
            "relative_velocity": {
                "kilometers_per_second": "19.2605267424",
                "kilometers_per_hour": "69337.8962725943",
                "miles_per_hour": "43083.8722700462"
            },
            "miss_distance": {
                "astronomical": "0.3434791687",
                "lunar": "133.6133966243",
                "kilometers": "51383752.026890669",
                "miles": "31928382.9707184722"
            },
            "orbiting_body": "Earth"
        }
    ],
    "orbital_data": {
        "orbit_id": "11",
        "orbit_determination_date": "2017-04-06 08:36:49",
        "first_observation_date": "2014-12-18",
        "last_observation_date": "2015-01-19",
        "data_arc_in_days": 32,
        "observations_used": 48,
        "orbit_uncertainty": "7",
        "minimum_orbit_intersection": ".238859",
        "jupiter_tisserand_invariant": "3.893",
        "epoch_osculation": "2459000.5",
        "eccentricity": ".2964205040269036",
        "semi_major_axis": "1.736889557629124",
        "inclination": "35.59778511973887",
        "ascending_node_longitude": "96.18690376424611",
        "orbital_period": "836.0971308137649",
        "perihelion_distance": "1.222039879517633",
        "perihelion_argument": "359.8526274617071",
        "aphelion_distance": "2.251739235740615",
        "perihelion_time": "2458715.924397181128",
        "mean_anomaly": "122.5302817569568",
        "mean_motion": ".4305719834842821",
        "equinox": "J2000",
        "orbit_class": {
            "orbit_class_type": "AMO",
            "orbit_class_description": "Near-Earth asteroid orbits similar to that of 1221 Amor",
            "orbit_class_range": "1.017 AU < q (perihelion) < 1.3 AU"
        }
    },
    "is_sentry_object": false
}